STARLINK-1997_new
1 17592C 21009AW  21326.12967260  .00008077  00000-0  54106-3 0  3261
2 17592  53.0553 243.1697 0001903  69.3897 259.0030 15.06399074    11
STARLINK-1997_old
1 27592C 21009AW  21325.16701308  .00008862  00000-0  59382-3 0  3255
2 27592  53.0556 247.4907 0001873  67.4271  77.5444 15.06386304    10
